{"type": "FeatureCollection", "features": [ {"type": "Feature", "properties": {"norad_id": 31916, "name": "FENGYUN 1C DEB", "group": "fengyun-1c-debris", "lat": 5.1301274316579795, "lon": -91.99832495405633, "alt_km": 834.5175257502724, "timestamp": "2025-12-26T21:25:53.295254+00:00", "meta": {"OBJECT_NAME": "FENGYUN 1C DEB", "OBJECT_ID": "1999-025CLT", "EPOCH": "2025-12-26T12:15:03.407904", "MEAN_MOTION": 14.32611964, "ECCENTRICITY": 0.01453898, "INCLINATION": 99.3287, "RA_OF_ASC_NODE": 86.7446, "ARG_OF_PERICENTER": 56.8033, "MEAN_ANOMALY": 304.6993, "EPHEMERIS_TYPE": 0, "CLASSIFICATION_TYPE": "U", "NORAD_CAT_ID": 31916, "ELEMENT_SET_NO": 999, "REV_AT_EPOCH": 64724, "BSTAR": 0.0011672761, "MEAN_MOTION_DOT": 3.514e-05, "MEAN_MOTION_DDOT": 0}, "tle": {"line1": "1 31916U 99025CLT 25360.51045611  .00003514  00000+0  11673-2 0  9996", "line2": "2 31916  99.3287  86.7446 0145389  56.8033 304.6993 14.32611964647244"}}, "geometry": {"type": "Point", "coordinates": [-91.99832495405633, 5.1301274316579795]}}, {"type": "Feature", "properties": {"norad_id": 31917, "name": "FENGYUN 1C DEB", "group": "fengyun-1c-debris", "lat": 9.4411955510419, "lon": -8.107382301143197, "alt_km": 831.0622703289491, "timestamp": "2025-12-26T21:25:53.295264+00:00", "meta": {"OBJECT_NAME": "FENGYUN 1C DEB", "OBJECT_ID": "1999-025CLU", "EPOCH": "2025-12-24T18:26:23.436384", "MEAN_MOTION": 14.37671565, "ECCENTRICITY": 0.01888668, "INCLINATION": 98.3613, "RA_OF_ASC_NODE": 351.2261, "ARG_OF_PERICENTER": 257.1212, "MEAN_ANOMALY": 280.5832, "EPHEMERIS_TYPE": 0, "CLASSIFICATION_TYPE": "U", "NORAD_CAT_ID": 31917, "ELEMENT_SET_NO": 999, "REV_AT_EPOCH": 96594, "BSTAR": 0.00052248643, "MEAN_MOTION_DOT": 1.879e-05, "MEAN_MOTION_DDOT": 0}, "tle": {"line1": "1 31917U 99025CLU 25358.76832681  .00001879  00000+0  52249-3 0  9999", "line2": "2 31917  98.3613 351.2261 0188866 257.1212 280.5832 14.37671565965946"}}, "geometry": {"type": "Point", "coordinates": [-8.107382301143197, 9.4411955510419]}}, {"type": "Feature", "properties": {"norad_id": 31919, "name": "FENGYUN 1C DEB", "group": "fengyun-1c-debris", "lat": -70.20134494153098, "lon": -62.112332579179096, "alt_km": 742.921608260639, "timestamp": "2025-12-26T21:25:53.295274+00:00", "meta": {"OBJECT_NAME": "FENGYUN 1C DEB", "OBJECT_ID": "1999-025CLW", "EPOCH": "2025-12-26T15:21:50.083200", "MEAN_MOTION": 14.45806883, "ECCENTRICITY": 0.01026618, "INCLINATION": 99.1027, "RA_OF_ASC_NODE": 144.0628, "ARG_OF_PERICENTER": 165.3677, "MEAN_ANOMALY": 210.6358, "EPHEMERIS_TYPE": 0, "CLASSIFICATION_TYPE": "U", "NORAD_CAT_ID": 31919, "ELEMENT_SET_NO": 999, "REV_AT_EPOCH": 97282, "BSTAR": 0.00055251005, "MEAN_MOTION_DOT": 2.038e-05, "MEAN_MOTION_DDOT": 0}, "tle": {"line1": "1 31919U 99025CLW 25360.64016300  .00002038  00000+0  55251-3 0  9997", "line2": "2 31919  99.1027 144.0628 0102661 165.3677 210.6358 14.45806883972829"}}, "geometry": {"type": "Point", "coordinates": [-62.112332579179096, -70.20134494153098]}}, {"type": "Feature", "properties": {"norad_id": 31921, "name": "FENGYUN 1C DEB", "group": "fengyun-1c-debris", "lat": -53.505162077936205, "lon": -94.1782841863923, "alt_km": 952.8711762025359, "timestamp": "2025-12-26T21:25:53.295285+00:00", "meta": {"OBJECT_NAME": "FENGYUN 1C DEB", "OBJECT_ID": "1999-025CLY", "EPOCH": "2025-12-14T11:07:39.123264", "MEAN_MOTION": 13.75272567, "ECCENTRICITY": 0.02016687, "INCLINATION": 99.3382, "RA_OF_ASC_NODE": 240.7973, "ARG_OF_PERICENTER": 260.4861, "MEAN_ANOMALY": 97.3447, "EPHEMERIS_TYPE": 0, "CLASSIFICATION_TYPE": "U", "NORAD_CAT_ID": 31921, "ELEMENT_SET_NO": 999, "REV_AT_EPOCH": 92330, "BSTAR": 0.001077077, "MEAN_MOTION_DOT": 1.153e-05, "MEAN_MOTION_DDOT": 0}, "tle": {"line1": "1 31921U 99025CLY 25348.46364726  .00001153  00000+0  10771-2 0  9998", "line2": "2 31921  99.3382 240.7973 0201668 260.4861  97.3447 13.75272567923300"}}, "geometry": {"type": "Point", "coordinates": [-94.1782841863923, -53.505162077936205]}}, {"type": "Feature", "properties": {"norad_id": 31922, "name": "FENGYUN 1C DEB", "group": "fengyun-1c-debris", "lat": 34.66696473152234, "lon": -14.661558011454682, "alt_km": 856.6959902173921, "timestamp": "2025-12-26T21:25:53.295295+00:00", "meta": {"OBJECT_NAME": "FENGYUN 1C DEB", "OBJECT_ID": "1999-025CLZ", "EPOCH": "2025-12-25T23:00:57.071232", "MEAN_MOTION": 13.86657505, "ECCENTRICITY": 0.0161386, "INCLINATION": 98.8062, "RA_OF_ASC_NODE": 350.6131, "ARG_OF_PERICENTER": 350.583, "MEAN_ANOMALY": 63.4179, "EPHEMERIS_TYPE": 0, "CLASSIFICATION_TYPE": "U", "NORAD_CAT_ID": 31922, "ELEMENT_SET_NO": 999, "REV_AT_EPOCH": 93200, "BSTAR": 0.0016569, "MEAN_MOTION_DOT": 2.095e-05, "MEAN_MOTION_DDOT": 0}, "tle": {"line1": "1 31922U 99025CLZ 25359.95899388  .00002095  00000+0  16569-2 0  9999", "line2": "2 31922  98.8062 350.6131 0161386 350.5830  63.4179 13.86657505932000"}}, "geometry": {"type": "Point", "coordinates": [-14.661558011454682, 34.66696473152234]}}, {"type": "Feature", "properties": {"norad_id": 31923, "name": "FENGYUN 1C DEB", "group": "fengyun-1c-debris", "lat": 48.34344667810666, "lon": 82.99711254835425, "alt_km": 1224.1699754630627, "timestamp": "2025-12-26T21:25:53.295305+00:00", "meta": {"OBJECT_NAME": "FENGYUN 1C DEB", "OBJECT_ID": "1999-025CMA", "EPOCH": "2025-12-20T05:40:47.009280", "MEAN_MOTION": 13.54908967, "ECCENTRICITY": 0.0300717, "INCLINATION": 98.4358, "RA_OF_ASC_NODE": 86.9011, "ARG_OF_PERICENTER": 284.1241, "MEAN_ANOMALY": 72.6659, "EPHEMERIS_TYPE": 0, "CLASSIFICATION_TYPE": "U", "NORAD_CAT_ID": 31923, "ELEMENT_SET_NO": 999, "REV_AT_EPOCH": 63736, "BSTAR": 0.0012343, "MEAN_MOTION_DOT": 1.096e-05, "MEAN_MOTION_DDOT": 0}, "tle": {"line1": "1 31923U 99025CMA 25354.23665520  .00001096  00000+0  12343-2 0  9991", "line2": "2 31923  98.4358  86.9011 0300717 284.1241  72.6659 13.54908967637364"}}, "geometry": {"type": "Point", "coordinates": [82.99711254835425, 48.34344667810666]}}, {"type": "Feature", "properties": {"norad_id": 31924, "name": "FENGYUN 1C DEB", "group": "fengyun-1c-debris", "lat": 52.545547191910515, "lon": 145.21969789557366, "alt_km": 815.9562589815014, "timestamp": "2025-12-26T21:25:53.295315+00:00", "meta": {"OBJECT_NAME": "FENGYUN 1C DEB", "OBJECT_ID": "1999-025CMB", "EPOCH": "2025-12-26T08:51:30.584736", "MEAN_MOTION": 13.63943834, "ECCENTRICITY": 0.02722468, "INCLINATION": 98.4012, "RA_OF_ASC_NODE": 155.8886, "ARG_OF_PERICENTER": 60.7437, "MEAN_ANOMALY": 302.0634, "EPHEMERIS_TYPE": 0, "CLASSIFICATION_TYPE": "U", "NORAD_CAT_ID": 31924, "ELEMENT_SET_NO": 999, "REV_AT_EPOCH": 91653, "BSTAR": 0.0013331874, "MEAN_MOTION_DOT": 1.329e-05, "MEAN_MOTION_DDOT": 0}, "tle": {"line1": "1 31924U 99025CMB 25360.36910399  .00001329  00000+0  13332-2 0  9998", "line2": "2 31924  98.4012 155.8886 0272246  60.7437 302.0634 13.63943834916532"}}, "geometry": {"type": "Point", "coordinates": [145.21969789557366, 52.545547191910515]}}, {"type": "Feature", "properties": {"norad_id": 31926, "name": "FENGYUN 1C DEB", "group": "fengyun-1c-debris", "lat": -69.48696068493433, "lon": 121.48485180618697, "alt_km": 788.4076546690239, "timestamp": "2025-12-26T21:25:53.295325+00:00", "meta": {"OBJECT_NAME": "FENGYUN 1C DEB", "OBJECT_ID": "1999-025CMD", "EPOCH": "2025-12-25T17:14:09.122496", "MEAN_MOTION": 14.30877947, "ECCENTRICITY": 0.00402358, "INCLINATION": 98.9563, "RA_OF_ASC_NODE": 95.3452, "ARG_OF_PERICENTER": 216.9967, "MEAN_ANOMALY": 142.8439, "EPHEMERIS_TYPE": 0, "CLASSIFICATION_TYPE": "U", "NORAD_CAT_ID": 31926, "ELEMENT_SET_NO": 999, "REV_AT_EPOCH": 95413, "BSTAR": 0.0025288246, "MEAN_MOTION_DOT": 6.655e-05, "MEAN_MOTION_DDOT": 0}, "tle": {"line1": "1 31926U 99025CMD 25359.71816114  .00006655  00000+0  25288-2 0  9997", "line2": "2 31926  98.9563  95.3452 0040235 216.9967 142.8439 14.30877947954138"}}, "geometry": {"type": "Point", "coordinates": [121.48485180618697, -69.48696068493433]}}, {"type": "Feature", "properties": {"norad_id": 31929, "name": "FENGYUN 1C DEB", "group": "fengyun-1c-debris", "lat": -53.81940674708122, "lon": -61.71622771630028, "alt_km": 821.7805367492165, "timestamp": "2025-12-26T21:25:53.295336+00:00", "meta": {"OBJECT_NAME": "FENGYUN 1C DEB", "OBJECT_ID": "1999-025CME", "EPOCH": "2025-12-26T15:19:08.692320", "MEAN_MOTION": 14.3497082, "ECCENTRICITY": 0.00736149, "INCLINATION": 98.7919, "RA_OF_ASC_NODE": 130.2411, "ARG_OF_PERICENTER": 14.548, "MEAN_ANOMALY": 345.78, "EPHEMERIS_TYPE": 0, "CLASSIFICATION_TYPE": "U", "NORAD_CAT_ID": 31929, "ELEMENT_SET_NO": 999, "REV_AT_EPOCH": 70845, "BSTAR": 0.00044903781, "MEAN_MOTION_DOT": 1.272e-05, "MEAN_MOTION_DDOT": 0}, "tle": {"line1": "1 31929U 99025CME 25360.63829505  .00001272  00000+0  44904-3 0  9998", "line2": "2 31929  98.7919 130.2411 0073614  14.5480 345.7800 14.34970820708453"}}, "geometry": {"type": "Point", "coordinates": [-61.71622771630028, -53.81940674708122]}}, {"type": "Feature", "properties": {"norad_id": 31931, "name": "FENGYUN 1C DEB", "group": "fengyun-1c-debris", "lat": -36.20049635127738, "lon": -46.01260647234441, "alt_km": 1096.2902472301466, "timestamp": "2025-12-26T21:25:53.295346+00:00", "meta": {"OBJECT_NAME": "FENGYUN 1C DEB", "OBJECT_ID": "1999-025CMG", "EPOCH": "2025-12-23T02:24:09.253440", "MEAN_MOTION": 13.42631589, "ECCENTRICITY": 0.0422514, "INCLINATION": 97.8147, "RA_OF_ASC_NODE": 305.2675, "ARG_OF_PERICENTER": 242.6444, "MEAN_ANOMALY": 113.1098, "EPHEMERIS_TYPE": 0, "CLASSIFICATION_TYPE": "U", "NORAD_CAT_ID": 31931, "ELEMENT_SET_NO": 999, "REV_AT_EPOCH": 65361, "BSTAR": 0.00051347655, "MEAN_MOTION_DOT": 4.63e-06, "MEAN_MOTION_DDOT": 0}, "tle": {"line1": "1 31931U 99025CMG 25357.10010710  .00000463  00000+0  51348-3 0  9990", "line2": "2 31931  97.8147 305.2675 0422514 242.6444 113.1098 13.42631589653613"}}, "geometry": {"type": "Point", "coordinates": [-46.01260647234441, -36.20049635127738]}}]}